LEMUR-2-LEIA-PHILIP     
1 63246U 25052AN  26197.20582933  .00000038  00000+0  81854-5 0  9993
2 63246  97.6803  88.6647 0005093 117.2650 242.9092 14.97391818 73014
LEMUR-2-LIA-MARTIN      
1 63248U 25052AQ  26197.19995241  .00001694  00000+0  14826-3 0  9995
2 63248  97.6864  89.1794 0005247  87.9302 272.2521 14.98033914 73025
LEMUR-2-DELOITTE-1      
1 63259U 25052BB  26197.24738122  .00002289  00000+0  19988-3 0  9991
2 63259  97.6880  89.5559 0002598  64.8195 295.3297 14.97786748 73045
LEMUR-2-EMERSONROSE     
1 63261U 25052BD  26197.19376419  .00002427  00000+0  20361-3 0  9996
2 63261  97.6884  90.1187 0002674  59.1899 300.9587 14.99295828 73085
LEMUR-2-MARACHE-FRAN    
1 63262U 25052BE  26197.21579274  .00001576  00000+0  13043-3 0  9997
2 63262  97.6830  90.5088 0005288 248.3368 111.7292 15.00318757 73113
LEMUR-2-THEFALCONER     
1 63264U 25052BG  26197.21117392  .00000984  00000+0  89192-4 0  9999
2 63264  97.6827  89.1100 0000320 272.4617  87.6568 14.97565040 73039
LEMUR-2-UNTITLED-SC     
1 63351U 25061A   26197.17753479  .00001690  00000+0  97364-4 0  9998
2 63351  97.5657 172.3340 0019291 159.8388 200.3609 15.13649019 71976
LEMUR-2-ESPERANZA       
1 63352U 25061B   26196.88838929  .00001751  00000+0  10045-3 0  9998
2 63352  97.5664 172.1471 0018885 159.9774 200.2202 15.13754973 71936
LEMUR-2-KREMPEL-BRO2    
1 63353U 25061C   26196.97324945  .00001631  00000+0  92652-4 0  9999
2 63353  97.5706 172.8015 0020069 152.6735 207.5557 15.14181507 71963
LEMUR-2-THERMORAPTOR    
1 63354U 25061D   26196.88768536  .00002072  00000+0  11648-3 0  9993
2 63354  97.5712 172.7977 0019789 151.8094 208.4213 15.14264291 71953
LEMUR-2-NEUROSPICY      
1 63355U 25061E   26197.18752044  .00001548  00000+0  87740-4 0  9999
2 63355  97.5641 172.6997 0017603 153.6477 206.5653 15.14384106 72006
LEMUR-2-TILLINFINITY    
1 63356U 25061F   26196.88136137  .00002199  00000+0  12104-3 0  9999
2 63356  97.5625 172.7060 0019137 143.6124 216.6413 15.14967400 71989
LEMUR-2-KREMPEL-BRO1    
1 63357U 25061G   26196.92455596  .00001722  00000+0  96037-4 0  9997
2 63357  97.5626 172.6569 0019755 144.8713 215.3826 15.14774664 71989
LEMUR-2-LANGER2SPACE    
1 63358U 25061H   26196.89075938  .00002014  00000+0  11277-3 0  9999
2 63358  97.5633 172.4259 0017462 152.9152 207.2994 15.14467754 71965
LEMUR-2-BALTO           
1 63395U 25052BH  26197.20012109  .00002308  00000+0  18859-3 0  9996
2 63395  97.6927  90.4830 0005072 323.3360  36.7515 15.00368807 73113
LEMUR-2-KRISH           
1 64561U 25135AK  26197.23024705  .00001637  00000+0  14947-3 0  9990
2 64561  97.7774 311.9139 0001255  96.3399 263.7966 14.96451935 58261
