{"fetched_at":"2026-07-16T17:46:10.611Z","source":"https://celestrak.org/NORAD/elements/gp.php?GROUP=spire&FORMAT=JSON","constellation":"spire","records":[{"OBJECT_NAME":"LEMUR-2-LEIA-PHILIP","OBJECT_ID":"2025-052AN","EPOCH":"2026-07-16T04:56:23.654112","CLASSIFICATION_TYPE":"U","MEAN_MOTION":14.97391818,"ECCENTRICITY":0.00050935,"INCLINATION":97.6803,"RA_OF_ASC_NODE":88.6647,"ARG_OF_PERICENTER":117.265,"MEAN_ANOMALY":242.9092,"EPHEMERIS_TYPE":0,"NORAD_CAT_ID":63246,"ELEMENT_SET_NO":999,"REV_AT_EPOCH":7301,"BSTAR":0.000008185388,"MEAN_MOTION_DOT":3.8e-7,"MEAN_MOTION_DDOT":0},{"OBJECT_NAME":"LEMUR-2-LIA-MARTIN","OBJECT_ID":"2025-052AQ","EPOCH":"2026-07-16T04:47:55.888224","CLASSIFICATION_TYPE":"U","MEAN_MOTION":14.98033914,"ECCENTRICITY":0.00052475,"INCLINATION":97.6864,"RA_OF_ASC_NODE":89.1794,"ARG_OF_PERICENTER":87.9302,"MEAN_ANOMALY":272.2521,"EPHEMERIS_TYPE":0,"NORAD_CAT_ID":63248,"ELEMENT_SET_NO":999,"REV_AT_EPOCH":7302,"BSTAR":0.00014825807,"MEAN_MOTION_DOT":0.00001694,"MEAN_MOTION_DDOT":0},{"OBJECT_NAME":"LEMUR-2-DELOITTE-1","OBJECT_ID":"2025-052BB","EPOCH":"2026-07-16T05:56:13.737408","CLASSIFICATION_TYPE":"U","MEAN_MOTION":14.97786748,"ECCENTRICITY":0.00025983,"INCLINATION":97.688,"RA_OF_ASC_NODE":89.5559,"ARG_OF_PERICENTER":64.8195,"MEAN_ANOMALY":295.3297,"EPHEMERIS_TYPE":0,"NORAD_CAT_ID":63259,"ELEMENT_SET_NO":999,"REV_AT_EPOCH":7304,"BSTAR":0.00019988204,"MEAN_MOTION_DOT":0.00002289,"MEAN_MOTION_DDOT":0},{"OBJECT_NAME":"LEMUR-2-EMERSONROSE","OBJECT_ID":"2025-052BD","EPOCH":"2026-07-16T04:39:01.226016","CLASSIFICATION_TYPE":"U","MEAN_MOTION":14.99295828,"ECCENTRICITY":0.0002674,"INCLINATION":97.6884,"RA_OF_ASC_NODE":90.1187,"ARG_OF_PERICENTER":59.1899,"MEAN_ANOMALY":300.9587,"EPHEMERIS_TYPE":0,"NORAD_CAT_ID":63261,"ELEMENT_SET_NO":999,"REV_AT_EPOCH":7308,"BSTAR":0.00020361116,"MEAN_MOTION_DOT":0.00002427,"MEAN_MOTION_DDOT":0},{"OBJECT_NAME":"LEMUR-2-MARACHE-FRAN","OBJECT_ID":"2025-052BE","EPOCH":"2026-07-16T05:10:44.492736","CLASSIFICATION_TYPE":"U","MEAN_MOTION":15.00318757,"ECCENTRICITY":0.00052882,"INCLINATION":97.683,"RA_OF_ASC_NODE":90.5088,"ARG_OF_PERICENTER":248.3368,"MEAN_ANOMALY":111.7292,"EPHEMERIS_TYPE":0,"NORAD_CAT_ID":63262,"ELEMENT_SET_NO":999,"REV_AT_EPOCH":7311,"BSTAR":0.00013042817,"MEAN_MOTION_DOT":0.00001576,"MEAN_MOTION_DDOT":0},{"OBJECT_NAME":"LEMUR-2-THEFALCONER","OBJECT_ID":"2025-052BG","EPOCH":"2026-07-16T05:04:05.426688","CLASSIFICATION_TYPE":"U","MEAN_MOTION":14.9756504,"ECCENTRICITY":0.00003205,"INCLINATION":97.6827,"RA_OF_ASC_NODE":89.11,"ARG_OF_PERICENTER":272.4617,"MEAN_ANOMALY":87.6568,"EPHEMERIS_TYPE":0,"NORAD_CAT_ID":63264,"ELEMENT_SET_NO":999,"REV_AT_EPOCH":7303,"BSTAR":0.000089191921,"MEAN_MOTION_DOT":0.00000984,"MEAN_MOTION_DDOT":0},{"OBJECT_NAME":"LEMUR-2-UNTITLED-SC","OBJECT_ID":"2025-061A","EPOCH":"2026-07-16T04:15:39.005856","CLASSIFICATION_TYPE":"U","MEAN_MOTION":15.13649019,"ECCENTRICITY":0.0019291,"INCLINATION":97.5657,"RA_OF_ASC_NODE":172.334,"ARG_OF_PERICENTER":159.8388,"MEAN_ANOMALY":200.3609,"EPHEMERIS_TYPE":0,"NORAD_CAT_ID":63351,"ELEMENT_SET_NO":999,"REV_AT_EPOCH":7197,"BSTAR":0.000097363663,"MEAN_MOTION_DOT":0.0000169,"MEAN_MOTION_DDOT":0},{"OBJECT_NAME":"LEMUR-2-ESPERANZA","OBJECT_ID":"2025-061B","EPOCH":"2026-07-15T21:19:16.834656","CLASSIFICATION_TYPE":"U","MEAN_MOTION":15.13754973,"ECCENTRICITY":0.0018885,"INCLINATION":97.5664,"RA_OF_ASC_NODE":172.1471,"ARG_OF_PERICENTER":159.9774,"MEAN_ANOMALY":200.2202,"EPHEMERIS_TYPE":0,"NORAD_CAT_ID":63352,"ELEMENT_SET_NO":999,"REV_AT_EPOCH":7193,"BSTAR":0.00010045,"MEAN_MOTION_DOT":0.00001751,"MEAN_MOTION_DDOT":0},{"OBJECT_NAME":"LEMUR-2-KREMPEL-BRO2","OBJECT_ID":"2025-061C","EPOCH":"2026-07-15T23:21:28.752480","CLASSIFICATION_TYPE":"U","MEAN_MOTION":15.14181507,"ECCENTRICITY":0.00200691,"INCLINATION":97.5706,"RA_OF_ASC_NODE":172.8015,"ARG_OF_PERICENTER":152.6735,"MEAN_ANOMALY":207.5557,"EPHEMERIS_TYPE":0,"NORAD_CAT_ID":63353,"ELEMENT_SET_NO":999,"REV_AT_EPOCH":7196,"BSTAR":0.000092651813,"MEAN_MOTION_DOT":0.00001631,"MEAN_MOTION_DDOT":0},{"OBJECT_NAME":"LEMUR-2-THERMORAPTOR","OBJECT_ID":"2025-061D","EPOCH":"2026-07-15T21:18:16.015104","CLASSIFICATION_TYPE":"U","MEAN_MOTION":15.14264291,"ECCENTRICITY":0.0019789,"INCLINATION":97.5712,"RA_OF_ASC_NODE":172.7977,"ARG_OF_PERICENTER":151.8094,"MEAN_ANOMALY":208.4213,"EPHEMERIS_TYPE":0,"NORAD_CAT_ID":63354,"ELEMENT_SET_NO":999,"REV_AT_EPOCH":7195,"BSTAR":0.00011648,"MEAN_MOTION_DOT":0.00002072,"MEAN_MOTION_DDOT":0},{"OBJECT_NAME":"LEMUR-2-NEUROSPICY","OBJECT_ID":"2025-061E","EPOCH":"2026-07-16T04:30:01.766016","CLASSIFICATION_TYPE":"U","MEAN_MOTION":15.14384106,"ECCENTRICITY":0.00176035,"INCLINATION":97.5641,"RA_OF_ASC_NODE":172.6997,"ARG_OF_PERICENTER":153.6477,"MEAN_ANOMALY":206.5653,"EPHEMERIS_TYPE":0,"NORAD_CAT_ID":63355,"ELEMENT_SET_NO":999,"REV_AT_EPOCH":7200,"BSTAR":0.000087740342,"MEAN_MOTION_DOT":0.00001548,"MEAN_MOTION_DDOT":0},{"OBJECT_NAME":"LEMUR-2-TILLINFINITY","OBJECT_ID":"2025-061F","EPOCH":"2026-07-15T21:09:09.622368","CLASSIFICATION_TYPE":"U","MEAN_MOTION":15.149674,"ECCENTRICITY":0.0019137,"INCLINATION":97.5625,"RA_OF_ASC_NODE":172.706,"ARG_OF_PERICENTER":143.6124,"MEAN_ANOMALY":216.6413,"EPHEMERIS_TYPE":0,"NORAD_CAT_ID":63356,"ELEMENT_SET_NO":999,"REV_AT_EPOCH":7198,"BSTAR":0.00012104,"MEAN_MOTION_DOT":0.00002199,"MEAN_MOTION_DDOT":0},{"OBJECT_NAME":"LEMUR-2-KREMPEL-BRO1","OBJECT_ID":"2025-061G","EPOCH":"2026-07-15T22:11:21.634944","CLASSIFICATION_TYPE":"U","MEAN_MOTION":15.14774664,"ECCENTRICITY":0.0019755,"INCLINATION":97.5626,"RA_OF_ASC_NODE":172.6569,"ARG_OF_PERICENTER":144.8713,"MEAN_ANOMALY":215.3826,"EPHEMERIS_TYPE":0,"NORAD_CAT_ID":63357,"ELEMENT_SET_NO":999,"REV_AT_EPOCH":7198,"BSTAR":0.000096037,"MEAN_MOTION_DOT":0.00001722,"MEAN_MOTION_DDOT":0},{"OBJECT_NAME":"LEMUR-2-LANGER2SPACE","OBJECT_ID":"2025-061H","EPOCH":"2026-07-15T21:22:41.610432","CLASSIFICATION_TYPE":"U","MEAN_MOTION":15.14467754,"ECCENTRICITY":0.0017462,"INCLINATION":97.5633,"RA_OF_ASC_NODE":172.4259,"ARG_OF_PERICENTER":152.9152,"MEAN_ANOMALY":207.2994,"EPHEMERIS_TYPE":0,"NORAD_CAT_ID":63358,"ELEMENT_SET_NO":999,"REV_AT_EPOCH":7196,"BSTAR":0.00011276979,"MEAN_MOTION_DOT":0.00002014,"MEAN_MOTION_DDOT":0},{"OBJECT_NAME":"LEMUR-2-BALTO","OBJECT_ID":"2025-052BH","EPOCH":"2026-07-16T04:48:10.462176","CLASSIFICATION_TYPE":"U","MEAN_MOTION":15.00368807,"ECCENTRICITY":0.00050728,"INCLINATION":97.6927,"RA_OF_ASC_NODE":90.483,"ARG_OF_PERICENTER":323.336,"MEAN_ANOMALY":36.7515,"EPHEMERIS_TYPE":0,"NORAD_CAT_ID":63395,"ELEMENT_SET_NO":999,"REV_AT_EPOCH":7311,"BSTAR":0.00018858812,"MEAN_MOTION_DOT":0.00002308,"MEAN_MOTION_DDOT":0},{"OBJECT_NAME":"LEMUR-2-KRISH","OBJECT_ID":"2025-135AK","EPOCH":"2026-07-16T05:31:33.345120","CLASSIFICATION_TYPE":"U","MEAN_MOTION":14.96451935,"ECCENTRICITY":0.00012556,"INCLINATION":97.7774,"RA_OF_ASC_NODE":311.9139,"ARG_OF_PERICENTER":96.3399,"MEAN_ANOMALY":263.7966,"EPHEMERIS_TYPE":0,"NORAD_CAT_ID":64561,"ELEMENT_SET_NO":999,"REV_AT_EPOCH":5826,"BSTAR":0.00014947061,"MEAN_MOTION_DOT":0.00001637,"MEAN_MOTION_DDOT":0}]}
